[{"OBJECT_NAME":"NUSAT-49 (KLARA DAN VON NEUMANN)","OBJECT_ID":"2024-149AJ","EPOCH":"2026-03-09T19:09:16.004160","MEAN_MOTION":15.30828857,"ECCENTRICITY":0.00011321,"INCLINATION":97.3807,"RA_OF_ASC_NODE":150.738,"ARG_OF_PERICENTER":286.7761,"MEAN_ANOMALY":73.3356,"EPHEMERIS_TYPE":0,"CLASSIFICATION_TYPE":"U","NORAD_CAT_ID":60500,"ELEMENT_SET_NO":999,"REV_AT_EPOCH":8693,"BSTAR":0.00043568345,"MEAN_MOTION_DOT":0.00012912,"MEAN_MOTION_DDOT":0},{"OBJECT_NAME":"STARLINK-33815","OBJECT_ID":"2025-071E","EPOCH":"2026-03-09T11:20:10.746240","MEAN_MOTION":15.30192762,"ECCENTRICITY":0.00011621,"INCLINATION":53.1584,"RA_OF_ASC_NODE":141.1464,"ARG_OF_PERICENTER":71.7777,"MEAN_ANOMALY":288.335,"EPHEMERIS_TYPE":0,"CLASSIFICATION_TYPE":"U","NORAD_CAT_ID":63497,"ELEMENT_SET_NO":999,"REV_AT_EPOCH":5273,"BSTAR":0.00063531384,"MEAN_MOTION_DOT":0.000185,"MEAN_MOTION_DDOT":0}]
